NORAD_CAT_ID,OBJECT_NAME,OBJECT_TYPE,EPOCH,MEAN_MOTION,ECCENTRICITY,INCLINATION,RA_OF_ASC_NODE,ARG_OF_PERICENTER,MEAN_ANOMALY,BSTAR,MEAN_MOTION_DOT,MEAN_MOTION_DDOT,TLE_LINE0,TLE_LINE1,TLE_LINE2,SEMIMAJOR_AXIS,PERIOD,APOGEE,PERIGEE,DECAYED
53839.0,STARLINK-4784,PAYLOAD,2023-10-29 22:37:45,15.08829962,0.000145,53.2171,202.8999,91.4163,268.6995,4.8461e-05,4.83e-06,0.0,0 STARLINK-4784,1 53839U 22114X   23302.94288827  .00000483  00000-0  48461-4 0  9998,2 53839  53.2171 202.8999 0001450  91.4163 268.6995 15.08829962 62870,6917.911,95.438,540.779,538.773,0.0
53839.0,STARLINK-4784,PAYLOAD,2023-10-30 03:23:54,15.08837076,0.0001459,53.2174,202.0058,92.597,267.5189,4.3688e-05,4.07e-06,0.0,0 STARLINK-4784,1 53839U 22114X   23303.14160451  .00000407  00000-0  43688-4 0  9995,2 53839  53.2174 202.0058 0001459  92.5970 267.5189 15.08837076 62360,6917.889,95.438,540.764,538.745,0.0
53839.0,STARLINK-4784,PAYLOAD,2023-10-30 22:28:33,15.08830975,0.0001573,53.2172,198.4363,102.0362,258.0806,-8.8558e-05,-1.697e-05,0.0,0 STARLINK-4784,1 53839U 22114X   23303.93649693 -.00001697  00000-0 -88558-4 0  9991,2 53839  53.2172 198.4363 0001573 102.0362 258.0806 15.08830975 63020,6917.908,95.438,540.861,538.685,0.0
53839.0,STARLINK-4784,PAYLOAD,2023-10-31 09:36:14,15.08842046,0.0001424,53.2178,196.3583,93.5798,266.5357,-9.809e-05,-1.849e-05,0.0,0 STARLINK-4784,1 53839U 22114X   23304.40017118 -.00001849  00000-0 -98090-4 0  9996,2 53839  53.2178 196.3583 0001424  93.5798 266.5357 15.08842046 62553,6917.874,95.437,540.724,538.754,0.0
53839.0,STARLINK-4784,PAYLOAD,2023-10-31 22:19:19,15.08842846,0.000134,53.2181,193.9779,86.1339,273.9807,5.8695e-05,6.46e-06,0.0,0 STARLINK-4784,1 53839U 22114X   23304.93008713  .00000646  00000-0  58695-4 0  9994,2 53839  53.2181 193.9779 0001340  86.1339 273.9807 15.08842846 63172,6917.872,95.437,540.664,538.81,0.0
53839.0,STARLINK-4784,PAYLOAD,2023-11-01 01:30:05,15.08847213,0.0001337,53.2182,193.3853,96.5603,263.5541,0.00010239,1.342e-05,0.0,0 STARLINK-4784,1 53839U 22114X   23305.06256203  .00001342  00000-0  10239-3 0  9993,2 53839  53.2182 193.3853 0001337  96.5603 263.5541 15.08847213 62650,6917.858,95.437,540.648,538.798,0.0
53839.0,STARLINK-4784,PAYLOAD,2023-11-01 09:27:01,15.08845664,0.0001339,53.2183,191.8986,91.8232,268.2914,3.1413e-05,2.12e-06,0.0,0 STARLINK-4784,1 53839U 22114X   23305.39376457  .00000212  00000-0  31413-4 0  9996,2 53839  53.2183 191.8986 0001339  91.8232 268.2914 15.08845664 63249,6917.863,95.437,540.654,538.802,0.0
53839.0,STARLINK-4784,PAYLOAD,2023-11-01 20:34:44,15.08833166,0.0001439,53.2178,189.8175,93.4816,266.6341,-1.014e-05,-4.49e-06,0.0,0 STARLINK-4784,1 53839U 22114X   23305.85745587 -.00000449  00000-0 -10140-4 0  9999,2 53839  53.2178 189.8175 0001439  93.4816 266.6341 15.08833166 62774,6917.901,95.438,540.762,538.771,0.0
53839.0,STARLINK-4784,PAYLOAD,2023-11-01 22:10:07,15.0883366,0.0001643,53.2184,189.5201,85.9131,274.2049,5.4325e-06,-2.02e-06,0.0,0 STARLINK-4784,1 53839U 22114X   23305.92369599 -.00000202  00000-0  54325-5 0  9992,2 53839  53.2184 189.5201 0001643  85.9131 274.2049 15.08833660 63322,6917.9,95.438,540.901,538.628,0.0
53839.0,STARLINK-4784,PAYLOAD,2023-11-02 01:20:53,15.08838876,0.0001573,53.2184,188.9254,88.6773,271.4399,5.0895e-05,5.22e-06,0.0,0 STARLINK-4784,1 53839U 22114X   23306.05617093  .00000522  00000-0  50895-4 0  9993,2 53839  53.2184 188.9254 0001573  88.6773 271.4399 15.08838876 62800,6917.884,95.438,540.837,538.661,0.0
53839.0,STARLINK-4784,PAYLOAD,2023-11-02 09:17:49,15.08834384,0.0001718,53.2189,187.4381,84.8112,275.3076,2.6355e-06,-2.46e-06,0.0,0 STARLINK-4784,1 53839U 22114X   23306.38737631 -.00000246  00000-0  26355-5 0  9999,2 53839  53.2189 187.4381 0001718  84.8112 275.3076 15.08834384 63396,6917.898,95.438,540.951,538.574,0.0
53839.0,STARLINK-4784,PAYLOAD,2023-11-02 22:00:53,15.08845294,0.0001391,53.2173,185.0572,91.8726,268.2426,-5.6042e-05,-1.18e-05,0.0,0 STARLINK-4784,1 53839U 22114X   23306.91729015 -.00001180  00000-0 -56042-4 0  9999,2 53839  53.2173 185.0572 0001391  91.8726 268.2426 15.08845294 63472,6917.864,95.437,540.691,538.767,0.0
53839.0,STARLINK-4784,PAYLOAD,2023-11-03 09:08:35,15.08841229,0.0001327,53.2179,182.9765,86.3406,273.7737,-6.5903e-05,-1.337e-05,0.0,0 STARLINK-4784,1 53839U 22114X   23307.38097139 -.00001337  00000-0 -65903-4 0  9996,2 53839  53.2179 182.9765 0001327  86.3406 273.7737 15.08841229 63000,6917.877,95.437,540.66,538.824,0.0
53839.0,STARLINK-4784,PAYLOAD,2023-11-03 20:16:18,15.08831252,0.0001527,53.2172,180.896,84.0162,276.1004,-1.3632e-05,-5.05e-06,0.0,0 STARLINK-4784,1 53839U 22114X   23307.84465809 -.00000505  00000-0 -13632-4 0  9998,2 53839  53.2172 180.8960 0001527  84.0162 276.1004 15.08831252 63079,6917.907,95.438,540.828,538.716,0.0
53839.0,STARLINK-4784,PAYLOAD,2023-11-03 21:51:41,15.088375,0.0001334,53.2167,180.5996,90.1729,269.9416,-5.9282e-05,-1.231e-05,0.0,0 STARLINK-4784,1 53839U 22114X   23307.91089545 -.00001231  00000-0 -59282-4 0  9993,2 53839  53.2167 180.5996 0001334  90.1729 269.9416 15.08837500 63622,6917.888,95.438,540.676,538.83,0.0
53839.0,STARLINK-4784,PAYLOAD,2023-11-04 01:02:27,15.08839904,0.0001463,53.2185,180.0004,89.5087,270.6073,-2.9379e-05,-7.55e-06,0.0,0 STARLINK-4784,1 53839U 22114X   23308.04337260 -.00000755  00000-0 -29379-4 0  9992,2 53839  53.2185 180.0004 0001463  89.5087 270.6073 15.08839904 63100,6917.881,95.438,540.758,538.734,0.0
53839.0,STARLINK-4784,PAYLOAD,2023-11-04 08:59:23,15.08840209,0.0001403,53.2169,178.5149,91.3377,268.7776,-3.5579e-05,-8.54e-06,0.0,0 STARLINK-4784,1 53839U 22114X   23308.37457243 -.00000854  00000-0 -35579-4 0  9991,2 53839  53.2169 178.5149 0001403  91.3377 268.7776 15.08840209 63693,6917.88,95.438,540.715,538.774,0.0
53839.0,STARLINK-4784,PAYLOAD,2023-11-04 21:42:27,15.08839228,0.0001274,53.218,176.1367,93.0115,267.1023,4.6156e-05,4.47e-06,0.0,0 STARLINK-4784,1 53839U 22114X   23308.90449065  .00000447  00000-0  46156-4 0  9992,2 53839  53.2180 176.1367 0001274  93.0115 267.1023 15.08839228 63773,6917.883,95.438,540.629,538.866,0.0
53839.0,STARLINK-4784,PAYLOAD,2023-11-05 00:53:13,15.08851106,0.0001503,53.2181,175.5403,97.3782,262.7381,2.9189e-05,1.77e-06,0.0,0 STARLINK-4784,1 53839U 22114X   23309.03696368  .00000177  00000-0  29189-4 0  9994,2 53839  53.2181 175.5403 0001503  97.3782 262.7381 15.08851106 63250,6917.846,95.437,540.751,538.672,0.0
53839.0,STARLINK-4784,PAYLOAD,2023-11-05 08:50:09,15.08845412,0.0001481,53.2179,174.0546,91.8538,268.2623,7.4959e-05,9.05e-06,0.0,0 STARLINK-4784,1 53839U 22114X   23309.36816426  .00000905  00000-0  74959-4 0  9993,2 53839  53.2179 174.0546 0001481  91.8538 268.2623 15.08845412 63840,6917.864,95.437,540.753,538.704,0.0
53839.0,STARLINK-4784,PAYLOAD,2023-11-05 21:33:12,15.08862249,0.0001382,53.2155,171.6774,120.1596,239.9533,0.00016859,2.398e-05,0.0,0 STARLINK-4784,1 53839U 22114X   23309.89806696  .00002398  00000-0  16859-3 0  9991,2 53839  53.2155 171.6774 0001382 120.1596 239.9533 15.08862249 63921,6917.812,95.436,540.633,538.721,0.0
53839.0,STARLINK-4784,PAYLOAD,2023-11-06 19:48:41,15.08800612,0.0001264,53.2167,167.5141,97.7119,262.4017,-0.00034349,-5.744e-05,0.0,0 STARLINK-4784,1 53839U 22114X   23310.82547843 -.00005744  00000-0 -34349-3 0  9996,2 53839  53.2167 167.5141 0001264  97.7119 262.4017 15.08800612 63525,6918.001,95.44,540.74,538.991,0.0
53839.0,STARLINK-4784,PAYLOAD,2023-11-06 21:24:04,15.08799499,0.0001353,53.2176,167.2156,92.4587,267.656,-0.00044273,-7.319e-05,0.0,0 STARLINK-4784,1 53839U 22114X   23310.89172403 -.00007319  00000-0 -44273-3 0  9996,2 53839  53.2176 167.2156 0001353  92.4587 267.6560 15.08799499 64079,6918.004,95.44,540.805,538.933,0.0
53839.0,STARLINK-4784,PAYLOAD,2023-11-07 00:34:51,15.08798739,0.0001271,53.2174,166.6204,98.4015,261.7121,-0.00043466,-7.191e-05,0.0,0 STARLINK-4784,1 53839U 22114X   23311.02420587 -.00007191  00000-0 -43466-3 0  9992,2 53839  53.2174 166.6204 0001271  98.4015 261.7121 15.08798739 64091,6918.007,95.44,540.751,538.992,0.0
53839.0,STARLINK-4784,PAYLOAD,2023-11-07 19:39:28,15.08815641,0.000127,53.2167,163.0538,98.3244,261.7892,-0.00023728,-4.06e-05,0.0,0 STARLINK-4784,1 53839U 22114X   23311.81908398 -.00004060  00000-0 -23728-3 0  9991,2 53839  53.2167 163.0538 0001270  98.3244 261.7892 15.08815641 63676,6917.955,95.439,540.698,538.941,0.0
53839.0,STARLINK-4784,PAYLOAD,2023-11-07 21:14:51,15.08831732,0.0001311,53.2173,162.7558,92.8174,267.2968,-0.00024186,-4.134e-05,0.0,0 STARLINK-4784,1 53839U 22114X   23311.88531580 -.00004134  00000-0 -24186-3 0  9994,2 53839  53.2173 162.7558 0001311  92.8174 267.2968 15.08831732 63683,6917.906,95.438,540.678,538.864,0.0
53839.0,STARLINK-4784,PAYLOAD,2023-11-08 19:30:14,15.08815874,0.0001227,53.2172,158.5917,95.6048,264.5084,0.00044187,6.747e-05,0.0,0 STARLINK-4784,1 53839U 22114X   23312.81266895  .00006747  00000-0  44187-3 0  9995,2 53839  53.2172 158.5917 0001227  95.6048 264.5084 15.08815874 63825,6917.954,95.439,540.668,538.97,0.0
53839.0,STARLINK-4784,PAYLOAD,2023-11-09 19:21:01,15.0885326,0.0001253,53.2161,154.1355,113.896,246.2164,0.00015093,2.116e-05,0.0,0 STARLINK-4784,1 53839U 22114X   23313.80626245  .00002116  00000-0  15093-3 0  9994,2 53839  53.2161 154.1355 0001253 113.8960 246.2164 15.08853260 63979,6917.84,95.437,540.572,538.838,0.0
53839.0,STARLINK-4784,PAYLOAD,2023-11-09 20:56:24,15.08849665,0.0001246,53.2164,153.8362,111.228,248.8846,0.00021247,3.096e-05,0.0,0 STARLINK-4784,1 53839U 22114X   23313.87250143  .00003096  00000-0  21247-3 0  9997,2 53839  53.2164 153.8362 0001246 111.2280 248.8846 15.08849665 64526,6917.851,95.437,540.578,538.854,0.0
53839.0,STARLINK-4784,PAYLOAD,2023-11-10 19:11:48,15.08854326,0.0001453,53.2171,149.6731,65.4895,294.6248,-2.6749e-05,-7.14e-06,0.0,0 STARLINK-4784,1 53839U 22114X   23314.79986451 -.00000714  00000-0 -26749-4 0  9996,2 53839  53.2171 149.6731 0001453  65.4895 294.6248 15.08854326 64120,6917.837,95.437,540.707,538.696,0.0
